OBJECT_NAME,OBJECT_ID,EPOCH,MEAN_MOTION,ECCENTRICITY,INCLINATION,RA_OF_ASC_NODE,ARG_OF_PERICENTER,MEAN_ANOMALY,EPHEMERIS_TYPE,CLASSIFICATION_TYPE,NORAD_CAT_ID,ELEMENT_SET_NO,REV_AT_EPOCH,BSTAR,MEAN_MOTION_DOT,MEAN_MOTION_DDOT
STARLINK-5529,2023-064AZ,2026-06-18T02:11:55.185216,14.98342563,.00032872,69.9992,211.2262,271.6942,88.3840,0,U,56495,999,17127,.12709045E-3,.1424E-4,0
STARLINK-5526,2023-064BA,2026-06-18T02:05:55.715424,14.98330731,.00044697,69.9988,211.2099,267.9549,92.1098,0,U,56496,999,17127,-.26215697E-3,-.322E-4,0
STARLINK-5527,2023-064BB,2026-06-17T11:34:56.830944,14.98339484,.00039338,69.9992,212.7126,269.5666,90.5042,0,U,56497,999,17118,-.11912094E-3,-.1515E-4,0
STARLINK-5522,2023-064BC,2026-06-17T11:52:44.557824,14.98323682,.00033767,69.9990,212.7553,272.3891,87.6882,0,U,56498,999,17118,-.16615123E-3,-.2075E-4,0
STARLINK-5775,2023-065A,2026-06-17T22:29:29.169024,15.27576490,.00018045,43.0068,6.1441,268.5415,91.5230,0,U,56503,999,17193,.9394893E-5,-.4E-7,0
STARLINK-5716,2023-065B,2026-06-17T22:49:50.288736,15.27584742,.0002301,43.0057,6.2475,277.2314,82.8276,0,U,56504,999,17193,.49136251E-4,.109E-4,0
STARLINK-5763,2023-065C,2026-06-17T23:26:55.207104,15.27539181,.00012768,43.0100,6.4365,17.9922,342.0974,0,U,56505,999,17193,-.36322824E-3,-.10231E-3,0
STARLINK-5340,2023-065D,2026-06-17T21:26:48.286752,15.27568334,.0000654,43.0035,355.3604,245.0633,115.0151,0,U,56506,999,17205,-.3270124E-4,-.1161E-4,0
STARLINK-5333,2023-065E,2026-06-17T04:37:14.284416,15.27574183,.00019008,43.0079,337.7887,268.7819,91.2815,0,U,56507,999,17219,.21041766E-4,.316E-5,0
STARLINK-5335,2023-065F,2026-06-17T22:09:07.759008,15.27574768,.00011628,43.0051,6.0334,273.2170,86.8549,0,U,56508,999,17193,-.3018679E-5,-.345E-5,0
STARLINK-5334,2023-065G,2026-06-17T22:25:46.940448,15.27574629,.00017131,43.0077,6.1166,268.3280,91.7375,0,U,56509,999,17193,-.6820118E-5,-.45E-5,0
STARLINK-5339,2023-065H,2026-06-16T07:00:47.992896,15.27576014,.00008711,43.0001,15.2976,269.5050,90.5702,0,U,56510,999,17168,.60506995E-4,.1403E-4,0
STARLINK-5351,2023-065J,2026-06-17T22:35:01.805568,15.27577573,.00017267,43.0059,6.1613,276.4053,83.6602,0,U,56511,999,17193,.11374811E-4,.51E-6,0
STARLINK-5349,2023-065K,2026-06-16T07:06:19.916640,15.27572909,.00004017,42.9889,15.3157,86.7028,273.3869,0,U,56512,999,17168,-.190883E-5,-.314E-5,0
STARLINK-5329,2023-065L,2026-06-17T22:40:34.670208,15.27580123,.00024807,43.0091,6.1942,274.8379,85.2189,0,U,56513,999,17193,.22578792E-4,.359E-5,0
STARLINK-5348,2023-065N,2026-06-17T22:46:06.931776,15.27583299,.00027128,43.0101,6.2206,276.8924,83.1619,0,U,56515,999,17193,.16997753E-4,.205E-5,0
STARLINK-5342,2023-065P,2026-06-17T22:31:20.028000,15.27576111,.00017231,43.0067,6.1474,267.5425,92.5230,0,U,56516,999,17193,.2333982E-5,-.198E-5,0
STARLINK-5345,2023-065Q,2026-06-17T21:28:37.937856,15.27576962,.00013182,43.0031,6.6658,268.7555,91.3146,0,U,56517,999,17192,.11506379E-4,.54E-6,0
STARLINK-5346,2023-065R,2026-06-17T21:17:31.651296,15.27580943,.00016476,43.0044,6.6177,273.8004,86.2659,0,U,56518,999,17192,.40264604E-4,.846E-5,0
STARLINK-6313,2023-065S,2026-06-17T21:37:53.099328,15.27575089,.00014819,43.0021,6.7117,237.9281,122.1427,0,U,56519,999,17192,.1524595E-4,.157E-5,0
STARLINK-6344,2023-065T,2026-06-17T21:23:07.547712,15.27557706,.00014914,43.0041,6.6409,276.2134,83.8548,0,U,56520,999,17192,.33068699E-3,.8842E-4,0
STARLINK-6333,2023-065U,2026-06-17T21:40:53.863680,15.27567129,.00015354,43.0039,10.1314,263.6879,96.3798,0,U,56521,999,17188,-.17255197E-4,-.737E-5,0
STARLINK-6327,2023-065V,2026-06-17T21:32:20.464512,15.27575459,.00011697,43.0014,6.6844,257.6932,102.3789,0,U,56522,999,17192,.14663542E-4,.141E-5,0
STARLINK-6328,2023-065W,2026-06-17T22:03:47.320416,15.27575618,.00011832,43.0052,6.8493,263.6215,96.4502,0,U,56523,999,17192,.368091E-5,-.161E-5,0
STARLINK-6323,2023-065X,2026-06-17T21:54:32.266080,15.27575619,.00011829,43.0036,6.8033,266.0335,94.0381,0,U,56524,999,17192,.4624463E-5,-.135E-5,0
STARLINK-6329,2023-065Y,2026-06-17T22:27:22.297536,15.26742435,.00013293,43.0015,17.1863,275.0293,85.0407,0,U,56525,999,17180,.23608753E-4,.374E-5,0
STARLINK-6317,2023-065Z,2026-06-16T20:53:34.969632,15.27574586,.00010744,43.0042,12.7369,268.8914,91.1815,0,U,56526,999,17176,.11310137E-4,.49E-6,0
STARLINK-6335,2023-065AA,2026-06-17T23:16:52.203360,15.27574290,.00028995,43.0105,9.7702,277.9944,82.0579,0,U,56527,999,17189,-.28821247E-4,-.1056E-4,0
STARLINK-6337,2023-065AB,2026-06-17T21:31:37.031232,15.27580239,.00016826,43.0058,10.0822,278.7938,81.2724,0,U,56528,999,17188,.35362667E-4,.711E-5,0
STARLINK-6307,2023-065AC,2026-06-17T23:21:18.691200,15.27581923,.00023243,43.0056,355.0952,261.6115,98.4474,0,U,56529,999,17206,.54696091E-4,.1243E-4,0
