STARLINK-5529           
1 56495U 23064AZ  26169.09161094  .00001424  00000+0  12709-3 0  9990
2 56495  69.9992 211.2262 0003287 271.6942  88.3840 14.98342563171276
STARLINK-5526           
1 56496U 23064BA  26169.08745041 -.00003220  00000+0 -26216-3 0  9996
2 56496  69.9988 211.2099 0004469 267.9549  92.1098 14.98330731171276
STARLINK-5527           
1 56497U 23064BB  26168.48260221 -.00001515  00000+0 -11912-3 0  9994
2 56497  69.9992 212.7126 0003933 269.5666  90.5042 14.98339484171187
STARLINK-5522           
1 56498U 23064BC  26168.49496016 -.00002075  00000+0 -16615-3 0  9996
2 56498  69.9990 212.7553 0003376 272.3891  87.6882 14.98323682171185
STARLINK-5775           
1 56503U 23065A   26168.93714316 -.00000004  00000+0  93949-5 0  9995
2 56503  43.0068   6.1441 0001804 268.5415  91.5230 15.27576490171939
STARLINK-5716           
1 56504U 23065B   26168.95127649  .00001090  00000+0  49136-4 0  9998
2 56504  43.0057   6.2475 0002301 277.2314  82.8276 15.27584742171936
STARLINK-5763           
1 56505U 23065C   26168.97702786 -.00010231  00000+0 -36323-3 0  9994
2 56505  43.0100   6.4365 0001276  17.9922 342.0974 15.27539181171933
STARLINK-5340           
1 56506U 23065D   26168.89361443 -.00001161  00000+0 -32701-4 0  9996
2 56506  43.0035 355.3604 0000654 245.0633 115.0151 15.27568334172056
STARLINK-5333           
1 56507U 23065E   26168.19252644  .00000316  00000+0  21042-4 0  9997
2 56507  43.0079 337.7887 0001900 268.7819  91.2815 15.27574183172191
STARLINK-5335           
1 56508U 23065F   26168.92300647 -.00000345  00000+0 -30187-5 0  9991
2 56508  43.0051   6.0334 0001162 273.2170  86.8549 15.27574768171930
STARLINK-5334           
1 56509U 23065G   26168.93457107 -.00000450  00000+0 -68201-5 0  9992
2 56509  43.0077   6.1166 0001713 268.3280  91.7375 15.27574629171930
STARLINK-5339           
1 56510U 23065H   26167.29222214  .00001403  00000+0  60507-4 0  9998
2 56510  43.0001  15.2976 0000871 269.5050  90.5702 15.27576014171684
STARLINK-5351           
1 56511U 23065J   26168.94099312  .00000051  00000+0  11375-4 0  9990
2 56511  43.0059   6.1613 0001726 276.4053  83.6602 15.27577573171936
STARLINK-5349           
1 56512U 23065K   26167.29606385 -.00000314  00000+0 -19088-5 0  9996
2 56512  42.9889  15.3157 0000401  86.7028 273.3869 15.27572909171687
STARLINK-5329           
1 56513U 23065L   26168.94484572  .00000359  00000+0  22579-4 0  9997
2 56513  43.0091   6.1942 0002480 274.8379  85.2189 15.27580123171933
STARLINK-5348           
1 56515U 23065N   26168.94869134  .00000205  00000+0  16998-4 0  9998
2 56515  43.0101   6.2206 0002712 276.8924  83.1619 15.27583299171939
STARLINK-5342           
1 56516U 23065P   26168.93842625 -.00000198  00000+0  23340-5 0  9996
2 56516  43.0067   6.1474 0001723 267.5425  92.5230 15.27576111171939
STARLINK-5345           
1 56517U 23065Q   26168.89488354  .00000054  00000+0  11506-4 0  9997
2 56517  43.0031   6.6658 0001318 268.7555  91.3146 15.27576962171923
STARLINK-5346           
1 56518U 23065R   26168.88717189  .00000846  00000+0  40265-4 0  9991
2 56518  43.0044   6.6177 0001647 273.8004  86.2659 15.27580943171921
STARLINK-6313           
1 56519U 23065S   26168.90130902  .00000157  00000+0  15246-4 0  9993
2 56519  43.0021   6.7117 0001481 237.9281 122.1427 15.27575089171924
STARLINK-6344           
1 56520U 23065T   26168.89105958  .00008842  00000+0  33069-3 0  9997
2 56520  43.0041   6.6409 0001491 276.2134  83.8548 15.27557706171928
STARLINK-6333           
1 56521U 23065U   26168.90340120 -.00000737  00000+0 -17255-4 0  9999
2 56521  43.0039  10.1314 0001535 263.6879  96.3798 15.27567129171887
STARLINK-6327           
1 56522U 23065V   26168.89745908  .00000141  00000+0  14664-4 0  9999
2 56522  43.0014   6.6844 0001169 257.6932 102.3789 15.27575459171923
STARLINK-6328           
1 56523U 23065W   26168.91929769 -.00000161  00000+0  36809-5 0  9991
2 56523  43.0052   6.8493 0001183 263.6215  96.4502 15.27575618171928
STARLINK-6323           
1 56524U 23065X   26168.91287345 -.00000135  00000+0  46245-5 0  9995
2 56524  43.0036   6.8033 0001182 266.0335  94.0381 15.27575619171920
STARLINK-6329           
1 56525U 23065Y   26168.93567474  .00000374  00000+0  23609-4 0  9994
2 56525  43.0015  17.1863 0001329 275.0293  85.0407 15.26742435171807
STARLINK-6317           
1 56526U 23065Z   26167.87054363  .00000049  00000+0  11310-4 0  9990
2 56526  43.0042  12.7369 0001074 268.8914  91.1815 15.27574586171764
STARLINK-6335           
1 56527U 23065AA  26168.97004865 -.00001056  00000+0 -28821-4 0  9991
2 56527  43.0105   9.7702 0002899 277.9944  82.0579 15.27574290171894
STARLINK-6337           
1 56528U 23065AB  26168.89695638  .00000711  00000+0  35363-4 0  9991
2 56528  43.0058  10.0822 0001682 278.7938  81.2724 15.27580239171883
STARLINK-6307           
1 56529U 23065AC  26168.97313300  .00001243  00000+0  54696-4 0  9995
2 56529  43.0056 355.0952 0002324 261.6115  98.4474 15.27581923172064
